ONEWEB-0158             
1 48054U 21025N   26188.31536735 -.00000162  00000+0 -47966-3 0  9994
2 48054  87.8982 316.2127 0001761 104.9650 255.1675 13.13469281256278
ONEWEB-0157             
1 48055U 21025P   26188.34077592  .00000340  00000+0  89632-3 0  9991
2 48055  87.8979 316.2120 0002308  99.5939 260.5451 13.13471345256215
ONEWEB-0162             
1 48056U 21025Q   26188.31693586 -.00000195  00000+0 -56954-3 0  9997
2 48056  87.8974 316.2170 0001932  94.2269 265.9081 13.13469687256186
ONEWEB-0155             
1 48057U 21025R   26188.32387140  .00000056  00000+0  11905-3 0  9996
2 48057  87.8980 316.2125 0002005  97.6085 262.5271 13.13474032256329
ONEWEB-0149             
1 48058U 21025S   26188.34585479  .00000371  00000+0  98173-3 0  9996
2 48058  87.8980 316.2120 0001921  92.1690 267.9659 13.13469718256136
ONEWEB-0148             
1 48059U 21025T   26188.30860159 -.00000234  00000+0 -67579-3 0  9990
2 48059  87.8974 316.2251 0002140  84.2425 275.8948 13.13469395256250
ONEWEB-0160             
1 48060U 21025U   26188.32552703  .00000131  00000+0  32510-3 0  9998
2 48060  87.8974 316.2175 0001186 107.2388 252.8871 13.13470416256201
ONEWEB-0163             
1 48061U 21025V   26188.31029356 -.00000261  00000+0 -75021-3 0  9991
2 48061  87.8983 316.2167 0002201  99.7929 260.3449 13.13468973256321
ONEWEB-0159             
1 48062U 21025W   26187.84476445 -.00000265  00000+0 -75987-3 0  9999
2 48062  87.8982 316.3033 0002158 100.5970 259.5402 13.13469408256189
ONEWEB-0164             
1 48063U 21025X   26188.28321016  .00000194  00000+0  49702-3 0  9997
2 48063  87.8984 316.2223 0001806  98.8698 261.2635 13.13468818256224
ONEWEB-0167             
1 48064U 21025Y   26188.31114849 -.00000230  00000+0 -66431-3 0  9997
2 48064  87.8972 316.2247 0002371 112.5730 247.5651 13.13469756256213
ONEWEB-0166             
1 48065U 21025Z   26188.33400255  .00000262  00000+0  68197-3 0  9993
2 48065  87.8984 316.1932 0001950  97.2977 262.8374 13.13469711256292
ONEWEB-0151             
1 48066U 21025AA  26188.33568702  .00000325  00000+0  85585-3 0  9996
2 48066  87.8978 316.2084 0001935 102.6080 257.5265 13.13469885256230
ONEWEB-0170             
1 48067U 21025AB  26188.34414751  .00000373  00000+0  98606-3 0  9993
2 48067  87.8981 316.2088 0001582 114.1908 245.9387 13.13469314256192
ONEWEB-0168             
1 48068U 21025AC  26187.87184904  .00000223  00000+0  57466-3 0  9998
2 48068  87.8980 316.3037 0001952 100.2412 259.8938 13.13469858256148
ONEWEB-0173             
1 48069U 21025AD  26188.32045167 -.00000074  00000+0 -23643-3 0  9993
2 48069  87.8976 316.2147 0002260 103.2757 256.8625 13.13469813256447
ONEWEB-0171             
1 48070U 21025AE  26188.35769414  .00000210  00000+0  53997-3 0  9991
2 48070  87.8974 316.2151 0001892 101.2685 258.8657 13.13468831256266
ONEWEB-0172             
1 48071U 21025AF  26188.33738456  .00000311  00000+0  81537-3 0  9995
2 48071  87.8981 316.2103 0002050 103.3316 256.8042 13.13470575257156
ONEWEB-0174             
1 48072U 21025AG  26188.31876100 -.00000124  00000+0 -37450-3 0  9992
2 48072  87.8982 316.2128 0001992  95.6328 264.5028 13.13469482256474
ONEWEB-0175             
1 48073U 21025AH  26188.34923264  .00000381  00000+0  10075-2 0  9996
2 48073  87.8984 316.1923 0001941 110.4264 249.7074 13.13469497256133
ONEWEB-0177             
1 48074U 21025AJ  26188.28490600  .00000117  00000+0  28597-3 0  9999
2 48074  87.8981 316.2229 0002105  94.5756 265.5614 13.13469152256316
ONEWEB-0178             
1 48075U 21025AK  26188.30366656 -.00000248  00000+0 -71449-3 0  9997
2 48075  87.8970 316.2297 0002066 105.6316 254.5042 13.13470044256362
ONEWEB-0108             
1 48076U 21025AL  26188.33907656  .00000390  00000+0  10334-2 0  9993
2 48076  87.8984 316.2044 0001755  94.1832 265.9498 13.13469555256295
ONEWEB-0169             
1 48077U 21025AM  26187.91417009 -.00000200  00000+0 -58166-3 0  9993
2 48077  87.8976 316.2952 0001961  95.2185 264.9168 13.13468888254892
ONEWEB-0176             
1 48210U 21031A   26188.27408469  .00000162  00000+0  40273-3 0  9994
2 48210  87.8970 285.6960 0001987  98.5157 261.6198 13.14501876250952
ONEWEB-0184             
1 48211U 21031B   26188.24712769  .00000163  00000+0  40478-3 0  9991
2 48211  87.8980 285.7038 0002380 120.1996 239.9370 13.14502503250927
ONEWEB-0179             
1 48212U 21031C   26187.67938840  .00000360  00000+0  11170-3 0  9994
2 48212  87.8995 282.2817 0220535 193.1849 166.3524 14.25542947251825
ONEWEB-0180             
1 48213U 21031D   26188.25030574  .00000211  00000+0  53456-3 0  9995
2 48213  87.8981 285.6999 0002451 103.2379 256.9025 13.14503291250854
ONEWEB-0218             
1 48214U 21031E   26188.27250361  .00000192  00000+0  48256-3 0  9996
2 48214  87.8981 285.6951 0002645 116.2121 243.9281 13.14503628251010
ONEWEB-0209             
1 48215U 21031F   26187.72858739  .00000208  00000+0  52779-3 0  9992
2 48215  87.8971 285.8186 0002237  98.2770 261.8614 13.14502981250949
